Id,Name,Zipcode Address,Address,State,Phone Number,Town,Lat,Lng,Link,Category,Zipcode,Business Name,Latitude,Longitude,Website
1,5 Points,,"756 S Stone Ave, Tucson, AZ 85701",Arizona,(520) 623 3888,Tucson,32.212219,-110.969093,https://www.5pointstucson.com/,Bar/Restaurant,,,,,
2,AJ's Fine Foods - Arcadia,,"4430 E Camelback Road, Phoenix, AZ 85018",Arizona,(602) 552 0956,Phoenix,33.50974,-111.986,https://www.ajsfinefoods.com/,Retail Store,,,,,
3,AJ's Fine Foods - Camelback,,"5017 N. Central Avenue, Phoenix, AZ 85012",Arizona,(602) 230 7015,Phoenix,33.50989,-112.07203,https://www.ajsfinefoods.com/,Retail Store,,,,,
4,AJ's Fine Foods - Glendale,,"20050 N 67th Ave, Glendale, AZ 85308",Arizona,(623) 537 2300,Phoenix,33.66584,-112.20315,https://www.ajsfinefoods.com/,Retail Store,,,,,
5,AJ's Fine Foods - Lincoln,,"7141 E Lincoln Drive, Phoenix, AZ 85253",Arizona,(480) 998 0052,Phoenix,33.53192,-112.00598,https://www.ajsfinefoods.com/,Retail Store,,,,,
6,AJ's Fine Foods - Lone Mountain,,"31311 N. Scottsdale Road, Scottsdale, AZ 85266",Arizona,(480) 575 6200,Phoenix,33.76897,-111.92453,https://www.ajsfinefoods.com/,Retail Store,,,,,
7,AJ's Fine Foods - Mesa,,"1836 S. Val Vista Drive, Mesa, AZ 85204",Arizona,(480) 507 7280,Phoenix,33.38201,-111.75691,https://www.ajsfinefoods.com/,Retail Store,,,,,
8,AJ's Fine Foods - Tucson,,"2805 E Skyline Dr, Tucson, AZ 85718",Arizona,(520) 232 6340,Tucson,32.32638,-110.9126,https://www.ajsfinefoods.com/,Retail Store,,,,,
9,Andaz Scottsdale,,"6114 N Scottsdale Rd, Scottsdale, AZ 85253, USA",Arizona,(480) 368-1234,Phoenix,33.52728,-111.92904,https://www.andazscottsdale.com/,Retail Store,,,,,
10,Anello,,"222 E 6th St, Tucson, AZ 85705",Arizona,,Tucson,32.22744,-110.96805,https://anello.space/,Bar/Restaurant,,,,,
11,Annex Cocktail Lounge,,"50 S San Francisco St, Flagstaff, AZ 86001, USA",Arizona,(928) 779-2811,Flagstaff,35.195585,-111.64865,https://www.annexcocktaillounge.com/,Bar/Restaurant,,,,,
12,Arizona Country Club,,"5668 E Orange Blossom Ln, Phoenix, AZ 85018",Arizona,(480) 889-1505,Phoenix,33.4859,-111.9657,https://www.azcountryclub.com,Bar/Restaurant,,,,,
13,Atria,,"103 N Leroux St, Flagstaff, AZ 86001, USA",Arizona,(928) 440-4377,Flagstaff,35.19874,-111.64874,https://www.atriarestaurant.com/,Bar/Restaurant,,,,,
14,AZ Wilderness DTPHX,,"201 E Roosevelt St, Phoenix, AZ 85004",Arizona,(480) 462 1836,Phoenix,33.458611,-112.071228,https://www.azwbeer.com/dtphx/,Bar/Restaurant,,,,,
15,Bacanora,,"1301 NW Grand Ave Unit 1, Phoenix, AZ 85004, USA",Arizona,(602) 612-4018,Phoenix,33.45714,-112.089867,https://www.bacanoraphx.com/,Bar/Restaurant,,,,,
16,Bar Bata,,"35 E Toole Ave, Tucson, AZ 85701",Arizona,(520) 367-4718,Tucson,32.22626,-110.97079,https://www.batatucson.com/,Bar/Restaurant,,,,,
17,Bata,,"35 E Toole Ave, Tucson, AZ 85701",Arizona,(520) 367-4718,Tucson,32.22626,-110.97079,https://www.batatucson.com/,Bar/Restaurant,,,,,
18,Bear & Dragon,,"334 S Montezuma St, Prescott, AZ 86303",Arizona,(928) 445-4333,Prescott,34.53666,-112.47075,https://www.beardragon.cafe/,Bar/Restaurant,,,,,
19,Beaver St. Liquors,,"824 N Beaver St, Flagstaff, AZ 86001, USA",Arizona,(928) 774-8502,Flagstaff,35.20596,-111.64611,https://beaverstliquor.com/,Retail Store,,,,,
20,Beginner's Luck,,"7240 E Main St, Scottsdale, AZ 85251",Arizona,(480) 571-0416,Phoenix,33.4934,-111.9241,https://www.beginnersluckaz.com/,Bar/Restaurant,,,,,
21,Belly,,"4971 N 7th Ave, Phoenix, AZ 85007, USA",Arizona,(602) 296-4452,Phoenix,33.50882,-112.082165,https://www.bellyphx.com/,Bar/Restaurant,,,,,
22,Belly - Gilbert,,"3150 E Ray Rd, Gilbert, AZ 85296",Arizona,(480) 500 6464,Phoenix,33.32205,-111.72333,https://www.bellyphx.com/,Bar/Restaurant,,,,,
23,Belly Kitchen & Bar - Gilbert,,"3150 E Ray Rd #180, Gilbert, AZ 85296",Arizona,(480) 500-6464,Phoenix,33.3221,-111.7238,https://www.bellyphx.com/gilbert/belly-gilbert,Bar/Restaurant,,,,,
24,BevMo (Chandler),,"6705 W Happy Valley Rd, Chandler, AZ 85249",Arizona,(480) 821-2500,Phoenix,33.265892,-111.820847,https://www.bevmo.com/stores/chandler-az,Retail Store,,,,,
25,BevMo (Glendale),,"6780 W Bell Rd, Glendale, AZ 85308",Arizona,(623) 334-3017,Phoenix,33.638233,-112.202145,https://www.bevmo.com/stores/glendale-az,Retail Store,,,,,
26,BevMo (Goodyear),,"15405 W McDowell Rd, Goodyear, AZ 85395",Arizona,(623) 537-2300,Phoenix,33.461222,-112.391362,https://www.bevmo.com/stores/goodyear-az,Retail Store,,,,,
27,BevMo (Happy Valley),,"2501 W Happy Valley Rd, Phoenix, AZ 85085",Arizona,(623) 581-6602,Phoenix,33.714493,-112.111245,https://www.bevmo.com/stores/phoenix-az,Retail Store,,,,,
28,BevMo (Peoria),,"2480 W Happy Valley Rd, Peoria, AZ 85085",Arizona,(623) 580-1145,Phoenix,33.714493,-112.111245,https://www.bevmo.com/stores/peoria-az,Retail Store,,,,,
29,BevMo (Scottsdale),,"3450 N Scottsdale Rd, Scottsdale, AZ 85251",Arizona,(480) 946-0591,Phoenix,33.483108,-111.924874,https://www.bevmo.com/stores/scottsdale-az,Retail Store,,,,,
30,BevMo (Tucson),,"6228 E Broadway Blvd, Suite 100, Tucson, AZ 85711",Arizona,(520) 514-0695,Tucson,32.2237,-110.8631,https://www.bevmo.com/,Retail Store,,,,,
31,Biga,,"623 Miller Valley Rd, Prescott, AZ 86301, USA",Arizona,(928) 227-2543,Precott,34.55239,-112.479615,https://www.bigaprescott.com/,Bar/Restaurant,,,,,
32,Black Sheep Wine Bar + Merchant,,"440 Main St, New Rochelle, NY 10801",Arizona,(914) 632-2822,Phoenix,40.911491,-73.782925,https://www.mainwinesusa.com,Retail Store,,,,,
33,Blue Front,,"1000 Boston Post Road, Rye, NY 10580",Arizona,(914) 967-2276,Tucson,40.98177,-73.68335,https://postroadmarket.com,Bar/Restaurant,,,,,
34,Brewha,,"1160 S Page Springs Rd, Cornville, AZ 86325",Arizona,,Cottonwood,34.71834,-111.90404,https://www.brewhaaz.com/,Bar/Restaurant,,,,,
35,Brix,,"413 N San Francisco St, Flagstaff, AZ 86001, USA",Arizona,(928) 213-1021,Flagstaff,35.201365,-111.646675,https://www.brixflagstaff.com/,Bar/Restaurant,,,,,
36,BZ's Italian Kitchen,,"7856 E Wrightstown Rd, Tucson, AZ 85715, USA",Arizona,(520) 546-1402,Tucson,32.24931,-110.82474,https://www.bzsitaliankitchen.com/,Bar/Restaurant,,,,,
37,Canopy Tempe,,"108 E University Dr, Tempe, AZ 85281",Arizona,(602) 612-9600,Phoenix,33.422001,-111.93766,https://www.hilton.com/en/hotels/phxcpup-canopy-tempe-downtown/,Bar/Restaurant,,,,,
38,Cellars Fine Wine,," 3330 N 32nd St, Phoenix, AZ 85018",Arizona,(602) 522-0008,Phoenix,33.49394,-111.99948,,Retail Store,,,,,
39,Century Grand,,"3626 E Indian School Rd, Phoenix, AZ 85018, United States",Arizona,(602) 739-1388,Phoenix,33.495978,-111.985099,https://centurygrandphx.com/,Bar/Restaurant,,,,,
40,Citizen Public House,,"7111 E 5th Ave, Scottsdale, AZ 85251",Arizona,(480) 398-4208,Phoenix,33.4996,-111.9276,https://www.citizenpublichouse.com/,Bar/Restaurant,,,,,
41,Clark's Market,,"100 Verde Valley School Rd, Sedona, AZ 86351, USA",Arizona,(928) 284-1144,Sedona,34.77859,-111.764681,https://www.clarksmarket.com/sedona,Retail Store,,,,,
42,Cocina Chiwas,,"2001 E Apache Blvd, Tempe, AZ 85281",Arizona,,Phoenix,33.41342,-111.90027,https://www.tacoschiwas.com/,Bar/Restaurant,,,,,
43,Contigo,,"3770 E Sunrise Dr, Tucson, AZ 85718, USA",Arizona,(520) 299-1540,Tuscon,32.31394,-110.91695,http://eatatcontigo.com/,Bar/Restaurant,,,,,
44,Cork & Catch,,"1750 E Villa Dr, Cottonwood, AZ 86326",Arizona,(928) 649 2675,,34.72669,-112.00711,https://www.corkandcatch.com/,Bar/Restaurant,,,,,
45,County Seat,,"120 W Gurley St, Prescott, AZ 86301, USA",Arizona,(928) 515-3359,Precott,34.542125,-112.469464,https://www.countyseataz.com/,Bar/Restaurant,,,,,
46,Creekside,,"251 AZ-179, Sedona, AZ 86336",Arizona,(928) 282-1705,Sedona,34.863762,-111.76339,http://www.creeksidesedona.com,Bar/Restaurant,,,,,
47,Crisol,,"196 W Simpson St, Tucson, AZ 85701",Arizona,,Tucson,32.21566,-110.97366,https://exocoffee.com/pages/crisol-bar,Bar/Restaurant,,,,,
48,Dellepiane ,,"The Collective Plaza Sedona, AZ 86351, USA",Arizona,(928) 862-4129,Sedona,34.782441,-111.763667,http://www.dellepianeburger.com/,Bar/Restaurant,,,,,
49,Eden ,,"2 E Jefferson St, Phoenix, AZ 85004",Arizona,(602) 258 0231,Phoenix,33.447411,-112.07357,https://edenbarphoenix.com/,Bar/Restaurant,,,,,
50,Egyptian Motor Hotel,,"1445 W Fillmore St, Phoenix, AZ 85007, United States",Arizona,(602) 258-7101,Phoenix,33.451324,-112.090553,https://www.egyptianmotorhotel.com/,Bar/Restaurant,,,,,
51,El Gato Azul ,,"316 W Goodwin St, Prescott, AZ 86303, USA",Arizona,(928) 445-1070,Precott,34.540205,-112.472425,https://www.elgatoazulprescott.com/,Bar/Restaurant,,,,,
52,El Torero,,"231 E 26th St, Tucson, AZ 85713",Arizona,(520) 622-9533,Tucson,32.2016,-110.9684,,Bar/Restaurant,,,,,
53,Elephante Scottsdale,,"7014 E Camelback Rd, Scottsdale, AZ 85251",Arizona,(480) 687-8900,Phoenix,33.50259,-111.929169,https://www.elephante.com/,Restaurant,,,,,
54,Enchantment Resort,,"525 Boynton Canyon Rd, Sedona, AZ 86336, USA",Arizona,(928) 282-2900,Sedona,34.91358,-111.853165,https://www.enchantmentresort.com/,Bar/Restaurant,,,,,
55,Ermanos,,"220 N 4th Ave, Tucson, AZ 85705",Arizona,(520) 445-6625,Tucson,32.2251,-110.9655,https://www.ermanosbrew.com/,Bar/Restaurant,,,,,
56,Espiritu,,"123 Main St, Mesa, AZ 85201, USA",Arizona,(480) 398-8129,Phoenix,33.41502,-111.83583,https://www.espiritumesa.com/,Bar/Restaurant,,,,,
57,Etta,,"7555 N 16th St, Phoenix, AZ 85020, United States",Arizona,(480) 586-0960,Phoenix,33.556895,-112.050332,https://ettarestaurant.com/,Bar/Restaurant,,,,,
58,EVO - North Scottsdale,,"6186 N Scottsdale Rd, Scottsdale, AZ 85253",Arizona,(480) 265-9814,Phoenix,33.52846,-111.9266,https://www.evoscottsdale.com/,Bar/Restaurant,,,,,
59,Fairmont Scottsdale Princess,,"7575 E Princess Dr, Scottsdale, AZ 85255, USA",Arizona,(480) 585-4848,Phoenix,33.64896,-111.92457,https://www.scottsdaleprincess.com/,Bar/Restaurant,,,,,
60,Fairweather Social Club,,"224 N Cortez St, Prescott, AZ 86301",Arizona,(928) 515-3359,Prescott,34.544727,-112.469063,https://www.fairweatherprescott.com/,Bar/Restaurant,,,,,
61,Fat Ox,,"6316 N Scottsdale Rd, Scottsdale, AZ 85253",Arizona,(480) 307-6900,Phoenix,33.5319,-111.9244,https://ilovefatox.com/,Bar/Restaurant,,,,,
62,Feast,,"3719 E Speedway Blvd, Tucson, AZ 85716",Arizona,(520) 326-9363,Tucson,32.23715,-110.91882,https://www.eatatfeast.com/,Bar/Restaurant,,,,,
63,First and Last,,"1001 N 3rd Ave, Phoenix, AZ 85003",Arizona,(602) 975-8297,Phoenix,33.4622,-112.0785,https://www.firstandlastphx.com/,Bar/Restaurant,,,,,
64,Flagstaff Liquor,,"1700 E. Route 66, Flagstaff, AZ 86004",Arizona,(928) 266 0061,Flagstaff,35.219478,-111.599953,https://www.flagstaffliquor.com/,Retail Store,,,,,
65,Fleming's Steakhouse,,"6360 N Campbell Ave, Tucson AZ 85718",Arizona,(520) 529 5017,Tucson,32.321939,-110.928393,https://www.flemingssteakhouse.com/Locations/AZ/Tucson,Bar/Restaurant,,,,,
66,Flint,,"2425 E Camelback Rd, Phoenix, AZ 85016",Arizona,(602) 812 4818,Phoenix,33.50861,-112.028091,https://www.flintbybaltaire.com/,Bar/Restaurant,,,,,
67,FnB,,"7125 E 5th Ave, Suite 31, Scottsdale, AZ 85251, USA",Arizona,(480) 284-4777,Phoenix,33.497815,-111.927272,http://www.fnbrestaurant.com/,Bar/Restaurant,,,,,
68,Forbes Meat Company,,"747 S 6th Ave, Tucson, AZ 85701",Arizona,(520) 474 2714,Tucson,32.212257,-110.968089,https://forbesmeatcompany.com/,Bar/Restaurant,,,,,
69,Foret,,"2 S Beaver St #170, Flagstaff, AZ 86001",Arizona,(928) 214-7280,Flagstaff,35.1974,-111.6513,http://www.foretflagstaff.com,Bar/Restaurant,,,,,
70,Fox Theatre,,"17 W Congress St, Tucson, AZ 85701",Arizona,(520) 547 3040,Tucson,32.222118,-110.971703,https://foxtucson.com/,Bar/Restaurant,,,,,
71,Francine Restaurant,,"4710 N Goldwater Blvd, Scottsdale, AZ 85251",Arizona,(480) 690-6180,Phoenix,33.5045,-111.9281,http://www.francinerestaurant.com,Bar/Restaurant,,,,,
72,Gainey Ranch,,"7600 E Gainey Club Dr, Scottsdale, AZ 85258, United States",Arizona,(480) 951-0022,Phoenix,33.567726,-111.919004,https://www.gaineyranch.com/,Bar/Restaurant,,,,,
73,Gerardo's Italian Kitchen,,"2675 W State Rte 89A, Sedona, AZ 86336, USA",Arizona,(928) 862-4009,Sedona,34.86226,-111.806715,https://gerardositaliankitchen.com/,Bar/Restaurant,,,,,
74,Gertrude's,,"Desert Botanical Garden, 1201 N. Galvin Parkway Phoenix, AZ 85008",Arizona,(480) 719 8600,Phoenix,33.460055,-111.945795,https://dbg.org/gertrudes-restaurant/,Bar/Restaurant,,,,,
75,Glai Baan,,"2333 E Osborn Rd, Phoenix, AZ 85016, USA",Arizona,(602) 595-5881,Phoenix,33.48728,-112.030855,https://www.glaibaanaz.com/,Bar/Restaurant,,,,,
76,Good Oak Bar,,"316 E Congress St, Tucson, AZ 85701, United States",Arizona,(520) 882-2007,Tucson,32.221616,-110.970659,https://www.goodoakbar.com/,Bar/Restaurant,,,,,
77,Gracie's Tax Bar,,"711 N 7th Av, Phoenix, AZ 85007, USA",Arizona,(602) 366 0111,Phoenix,33.456415,-112.082215,http://www.graciesphx.com/,Bar/Restaurant,,,,,
78,Grand Canyon Spirits,,"982 N Fort Valley Rd, Flagstaff, AZ 86001, USA",Arizona,(928) 779-6423,Flagstaff,35.20715,-111.64806,https://grandcanyonspirits.com/,Retail Store,,,,,
79,Hacienda Del Sol,,"5501 N Hacienda del Sol Road, Tucson, AZ 85718, USA",Arizona,800-728-6514,Tucson,32.30746,-110.9155,https://www.haciendadelsol.com/,Bar/Restaurant,,,,,
80,Hidden House,,"159 W Commonwealth Ave, Chandler, AZ 85225, USA",Arizona,(480) 275-5525,Phoenix,33.30309,-111.84353,https://hiddenhouseaz.com/,Bar/Restaurant,,,,,
81,Highball,,"1514 N 7th Ave, Phoenix, AZ 85007",Arizona,,Phoenix,33.465179,-112.082581,https://www.highballphx.com/,Bar/Restaurant,,,,,
82,Hotel Congress,,"311 E Congress St, Tucson, AZ 85701, USA",Arizona,520-622-8848,Tuscon,32.22233,-110.96664,https://hotelcongress.com/,Bar/Restaurant,,,,,
83,Hotel Monte Vista,,"100 N San Francisco St, Flagstaff, AZ 86001",Arizona,(928) 779 6971,Flagstaff,35.198318,-111.647247,https://hotelmontevista.com/,Bar/Restaurant,,,,,
84,Josephine's,,"503 N Humphreys St, Flagstaff, AZ 86001",Arizona,(928) 779 3400,Flagstaff,35.20322,-111.64938,https://www.josephinesrestaurant.com/,Bar/Restaurant,,,,,
85,Judi's Restaurant & Lounge,,"40 Soldiers Pass Rd, Sedona, AZ 86336",Arizona,(928) 282 4449,Sedona,34.86322,-111.78281,https://sedonarestaurants.com/,Bar/Restaurant,,,,,
86,Juniper,,"222 E Congress St, Tucson, AZ 85701",Arizona,(520) 232 2530,Tucson,32.22191,-110.96793,https://www.junipertucson.com/,Bar/Restaurant,,,,,
87,Junipine Resort,,"8351 AZ-89A, Sedona, AZ 86336",Arizona,(928) 852 4589,Sedona,34.96445,-111.75392,https://www.junipine.com/,Bar/Restaurant,,,,,
88,Kingfisher,,"2564 E Grant Rd, Tucson, AZ 85716, USA",Arizona,(520) 323-7739,Tucson,32.24994,-110.9335,https://kingfishertucson.com/,Bar/Restaurant,,,,,
89,L'Auberge de Sedona,,"301 Little Ln, Sedona, AZ 86336, USA",Arizona,(855) 905-5745,Sedona,34.86712,-111.76153,https://www.lauberge.com/,Bar/Restaurant,,,,,
90,La Grande Orange Grocery,,"4410 N 40th St, Phoenix, AZ 85018",Arizona,(602) 840 7777,Phoenix,33.502129,-111.995758,https://lagrandeorangegrocery.com/,Retail Store,,,,,
91,Linger Longer Lounge,,"6522 N 16th St, Phoenix, AZ 85016, USA",Arizona,(602) 694-0342,Phoenix,33.53184,-112.04761,https://www.facebook.com/lingerlongerloungeaz/,Bar/Restaurant,,,,,
92,Liquor Barn,,"315 Bus Park Dr, Chino Valley, AZ 86323",Arizona,(928) 778-0118,Prescott,34.769345,-112.453774,https://www.liquorbarnaz.com/,Retail Store,,,,,
93,Liquor Vault,,"9301 E Shea Blvd, Scottsdale, AZ 85260",Arizona,(480) 860 0982,Phoenix,33.58242,-111.88062,http://www.azliquorvault.com/,Retail Store,,,,,
94,Little Rituals ,,"132 S Central Ave 4th Floor, Phoenix, AZ 85004, USA",Arizona,(602) 603-2050,Phoenix,33.44659,-112.0739,https://littleritualsbar.com/,Bar/Restaurant,,,,,
95,Lloyd's Liquors,,"1102 W Iron Springs Rd, Prescott, AZ 86305, USA",Arizona,(928) 778-0310,Precott,34.5592,-112.48363,https://lloydsliquors.com/,Retail Store,,,,,
96,Locale,,"60 N Alvernon Way, Tucson, AZ 85711",Arizona,(520) 398 7553,Tucson,32.222988,-110.908722,https://localetucson.com/,Bar/Restaurant,,,,,
97,Loews Ventana Canyon Resort,,"7000 N Resort Dr, Tucson, AZ 85750",Arizona,(520) 299-2020,Tucson,32.3246,-110.8457,https://www.loewshotels.com/ventana-canyon,Bar/Restaurant,,,,,
98,LON'S at The Hermosa Inn,,"5532 N Palo Cristi Rd,Paradise Valley, AZ 85253, USA",Arizona,(602) 955-7878,Phoenix,33.518275,-112.004888,https://www.hermosainn.com/dining/lons,Bar/Restaurant,,,,,
99,Lovecraft,,"3128 E Cactus Rd, Phoenix, AZ 85032",Arizona,(602) 237-5046,Phoenix,33.597336,-112.01392,https://lovecraftphx.com/,Bar/Restaurant,,,,,
100,Majestic Marketplace,,"601 Piccadilly Drive, Flagstaff, AZ 86001, USA",Arizona,(928) 773-0313,Flagstaff,35.190915,-111.64272,https://majesticmarketplaceaz.com/,Retail Store,,,,,
101,MercBar,,"2525 E Camelback Rd, Phoenix, AZ 85016",Arizona,(602) 252 2222,Phoenix,33.51098,-112.02811,http://mercbaraz.com/,Bar/Restaurant,,,,,
102,Mesa Grill,,"1185 Airport Rd, Sedona, AZ 86336",Arizona,(928) 282-2400,Sedona,34.8547,-111.7883,https://www.mesagrillsedona.com,Bar/Restaurant,,,,,
103,Mingle & Graze,,"48 S San Marcos Pl, Chandler, AZ 85225, USA",Arizona,(480) 726-2264,Phoenix,33.30291,-111.842545,https://mingleandgraze.com/,Bar/Restaurant,,,,,
104,Mini Bar,,"MSA Annexe, 267 South Avenida del Convento, Tucson, AZ 85745",Arizona,,Tucson,32.22001,-110.98527,https://www.instagram.com/thisisminibar/,Bar/Restaurant,,,,,
105,Mission Restaurant,,"3815 N Brown Ave, Scottsdale, AZ 85251",Arizona,(480) 636-5005,Phoenix,33.4933,-111.9224,https://www.themissionaz.com/the-mission-old-town-1/,Bar/Restaurant,,,,,
106,Mother Road,,"7 S Mikes Pike St, Flagstaff, AZ 86001",Arizona,(928) 774-9139,Flagstaff,35.1982,-111.6523,https://www.motherroadbeer.com,Bar/Restaurant,,,,,
107,Neighbor Market,,"901 N 1st St #109, Phoenix, AZ 85004, USA",Arizona,,Phoenix,33.45779307,-112.0724503,https://www.neighbormarketphx.com/,Retail Store,,,,,
108,Nook Kitchen,,"4231 E Indian School Rd, Phoenix, AZ 85018",Arizona,(602) 296 5655,Phoenix,33.49464,-111.98977,https://nookkitchen.com/,Bar/Restaurant,,,,,
109,North Italia,,"2995 E Skyline Dr Tucson, AZ 85718, USA",Arizona,(520) 299-1600,Tucson,32.32503,-110.92846,https://www.northitalia.com/locations/tucson-az-la-encantada/,Bar/Restaurant,,,,,
110,Ocotillo,,"3243 N 3rd St, Phoenix, AZ 85012, USA",Arizona,(602) 687-9080,Phoenix,33.48542,-112.068775,https://www.ocotillophx.com/,Bar/Restaurant,,,,,
111,Owls Club,,"236 S Scott Ave, Tucson, AZ 85701",Arizona,(520) 207-5678,Tucson,32.21868,-110.96993,https://www.owlsclubwest.com/,Bar/Restaurant,,,,,
112,Park Plaza Liquor & Deli,,"402 W Goodwin St, Prescott, AZ 86303, USA",Arizona,(928) 541-9894,Precott,34.5403,-112.473485,https://www.parkplazaliquor.com/,Retail Store,,,,,
113,Penca,,"50 E Broadway Blvd, Tucson, AZ 85701, USA",Arizona,(520) 203-7681,Tucson,32.22087,-110.97002,https://pencarestaurante.com/,Bar/Restaurant,,,,,
114,Pigtails Desert Ridge,,"21001 N Tatum Blvd, Phoenix, AZ 85050",Arizona,(480) 500 5358,Phoenix,33.677158,-111.977242,https://www.pigtailscocktails.com/,Bar/Restaurant,,,,,
115,Pigtails Downtown,,"1 E Washington St, Phoenix, AZ 85004",Arizona,(602) 675 4416,Phoenix,33.447922,-112.07357,https://www.pigtailscocktails.com/,Bar/Restaurant,,,,,
116,PJ's Village Pub,,"40 W Cortez Dr, Sedona, AZ 86351",Arizona,(928) 284 22250,Sedona,34.7805,-111.7641,https://www.pjsvillagepub.com/,Bar/Restaurant,,,,,
117,Plaza,,"2642 N Campbell Ave, Tucson, AZ 85719, USA",Arizona,(520) 327-0452,Tucson,32.25499,-110.94343,https://www.plazatucson.com/,Retail Store,,,,,
118,Poco Diablo,,"1752 State Route 179, Sedona, AZ 86336, USA",Arizona,(928) 282-7333,Sedona,34.86847,-111.76146,https://www.pocodiablo.com/,Bar/Restaurant,,,,,
119,Poppy's Office,,"34522 N Scottsdale Rd, Scottsdale, AZ 85266",Arizona,(480) 602 2906,Phoenix,33.79885,-111.931,https://poppysoffice.com/,Bar/Restaurant,,,,,
120,Portal,,"220 N 4th Ave, Tucson, AZ 85705, USA",Arizona,,Tucson,32.22435,-110.96534,https://www.portalcocktails.com/,Bar/Restaurant,,,,,
121,Quartz,,"341 W Van Buren St Suite B, Phoenix, AZ 85003",Arizona,(480) 725 5400,Phoenix,33.45113,-112.0786,https://quartzphx.com/,Bar/Restaurant,,,,,
122,Rafter Eleven,,"2985 Centre Ct, Prescott Valley, AZ 86314",Arizona,(928) 227 2050,Prescott,34.58618,-112.34012,https://www.raftereleven.com/,Bar/Restaurant,,,,,
123,Rascal at The Wilde Resort,,"2250 W State Rte 89A, Sedona, AZ 86336, USA",Arizona,(928) 852-1852,Sedona,34.864225,-111.79918,https://www.thewilderesort.com/rascal/,Bar/Restaurant,,,,,
124,Redwall Lounge,,"2130 Shelby Dr, Sedona, AZ 86336",Arizona,,Sedona,34.85399,-111.79761,https://redwalllounge.com/,Bar/Restaurant,,,,,
125,Redwall Lounge,,"2130 Shelby Dr, Sedona, AZ 86336",Arizona,(928) 554-1033,Sedona,34.866055,-111.808802,https://redwalllounge.com,Bar/Restaurant,,,,,
126,Reilly Craft Pizza & Drink,,"101 E Pennington S, Tucson, AZ 85701, USA",Arizona,(520) 882-5550,Tucson,32.2234,-110.96967,https://www.reillypizza.com/,Bar/Restaurant,,,,,
127,Rene's,,"Tlaquepaque, 336 AZ-179, Sedona, AZ 86336",Arizona,(928) 282 9225,Sedona,34.86203,-111.76251,https://www.renerestaurantsedona.com/,Bar/Restaurant,,,,,
128,Restaurant Progress,,"702 W Montecito Ave, Phoenix, AZ 85013, USA",Arizona,(602) 441-0553,Phoenix,33.49948,-112.08331,https://www.restaurantprogress.com/,Bar/Restaurant,,,,,
129,Rough Rider,,"1001 N Central Ave, Phoenix, AZ 85004, USA",Arizona,(602) 675-0439,Phoenix,33.459035,-112.073185,https://roughrideraz.com/,Bar/Restaurant,,,,,
130,Roy's Corner Liquor,,"647 S 6th Ave, Tucson, AZ 85701, USA",Arizona,(520) 623-4824,Tuscon,32.21382,-110.96843,https://www.royscornerliquor.com/,Retail Store,,,,,
131,Royal Palms Resort ,,"5200 E Camelback Road, Phoenix, AZ 85018, USA",Arizona,(602) 283-1234,Phoenix,33.50471,-111.96831,https://www.royalpalmshotel.com/,Bar/Restaurant,,,,,
132,Rum Runner,,"3131 E 1st St, Tucson, AZ 85716, USA",Arizona,(520) 326-0121,Tucson,32.23521,-110.92597,http://www.rumrunnertucson.com/,Retail Store,,,,,
133,Saint Urban,,"8260 Hayden Rd, Scottsdale, AZ 85258",Arizona,(602) 675-2000,Phoenix,33.556339,-111.89878,https://www.sainturbanphx.com/,Bar/Restaurant,,,,,
134,Salt Rock Kitchen at Amara,,"100 Amara Ln, Sedona, AZ 86336, USA",Arizona,(928) 340-8803,Sedona,34.86956,-111.75837,https://www.amararesort.com/eat-drink/saltrock,Bar/Restaurant,,,,,
135,Sandfish Sushi,,"15215 N Kierland Blvd #150, Scottsdale, AZ 85254, United States",Arizona,(602) 675 4020,Phoenix,33.626583,-111.926127,https://www.sandfishsushi.com/,Bar/Restaurant,,,,,
136,Sedona Golf Resort,,"35 Ridge Trail Dr, Sedona, AZ 86351, USA",Arizona,(928) 284-9355,Sedona,34.77313,-111.76545,https://www.sedonagolfresort.com/,Bar/Restaurant,,,,,
137,Sheraton Wild Horse Pass,,"5594 Wild Horse Pass Blvd, Chandler, AZ 85226, USA",Arizona,(602) 225-0100,Phoenix,33.25732,-111.98616,https://www.marriott.com/hotels/travel/phxws-sheraton-grand-at-wild-horse-pass/,Bar/Restaurant,,,,,
138,Shift FLG ,,"107 N San Francisco St, Flagstaff, AZ 86001, USA",Arizona,(928) 440-5135,Flagstaff,35.19849,-111.647679,http://www.shiftflg.com/,Bar/Restaurant,,,,,
139,Side Car,,"139 S Eastbourne Ave, Tucson, AZ 85716, USA",Arizona,(520) 795-1819,Tucson,32.22075,-110.92753,http://www.barsidecar.com/,Bar/Restaurant,,,,,
140,Sidecar Social Club,,"3243 N 3rd, Phoenix, AZ 85012",Arizona,(602) 842 7181,Phoenix,33.48534,-112.06897,https://www.instagram.com/sidecar_social_club/,Bar/Restaurant,,,,,
141,Silverleaf Country Club,,"18701 N Silverleaf Dr, Scottsdale, AZ 85255",Arizona,(480) 515-3200,Phoenix,33.6534,-111.8544,http://www.silverleafclub.com,Bar/Restaurant,,,,,
142,So Far So Good,,"901 N 1st St, Phoenix, AZ 85004, USA",Arizona,,Phoenix,33.45781,-112.07217,https://www.sofarsogoodphx.com/,Bar/Restaurant,,,,,
143,Sottise ,,"1025 N 2nd St, Phoenix, AZ 85004, USA",Arizona,(602) 254-6378,Phoenix,33.45957,-112.07083,https://www.sottisephx.com/,Bar/Restaurant,,,,,
144,St Charles Tavern,,"1632 S 4th Ave, Tucson, AZ 85713",Arizona,,Tucson,32.201778,-110.965637,https://www.saintcharlestavern.com/,Bar/Restaurant,,,,,
145,Tap and Bottle - Downtown,,"403 N 6th Ave, Tucson, AZ 85705",Arizona,(520) 344 8999,Tucson,32.226681,-110.969063,https://www.thetapandbottle.com/,Retail Store,,,,,
146,Tap and Bottle - North,,"7254 N Oracle Rd, Tucson, AZ 85704",Arizona,(520) 268 8725,Tucson,32.33825,-110.97669,https://www.thetapandbottle.com/,Retail Store,,,,,
147,Tarbell's Wine Store ,,"3205 E Camelback Rd, Phoenix, AZ 85018",Arizona,(602) 955-7730,Phoenix,33.50987,-112.01128,https://www.tarbellswinestore.com/,Retail Store,,,,,
148,Tavolino,,"2890 E Skyline Dr, Tucson, AZ 85718",Arizona,(520) 531-1913,Tucson,32.32193,-110.93029,https://tavolinoristorante.com/,Bar/Restaurant,,,,,
149,Teddy's Preserve,,"1001 N Central Ave, Phoenix, AZ 85004, USA",Arizona,(602) 6750389,Phoenix,33.458965,-112.073616,https://www.teddyspreserve.com/,Bar/Restaurant,,,,,
150,Tesota,,"300 W Camelback Rd, Phoenix, AZ 85013",Arizona,(602) 989-8456,Phoenix,33.5091,-112.0787,https://www.tesotaphx.com/,Bar/Restaurant,,,,,
151,The Barley Hound,,"234 S Cortez St, Prescott, AZ 86303",Arizona,(928) 237-4506,Precott,34.53864,-112.46907,https://www.thebarleyhound.com/,Bar/Restaurant,,,,,
152,The Bril Line,,"The Churchill, 901 N 1st St Phoenix, AZ 85004, USA",Arizona,,Phoenix,33.45782,-112.072165,https://thechurchillphx.com/,Bar/Restaurant,,,,,
153,The Capital Grille,,"2502 E Camelback Rd, Phoenix, AZ 85016, USA",Arizona,(602) 952-8900,Phoenix,33.51064,-112.027815,https://www.thecapitalgrille.com/locations/az/phoenix,Bar/Restaurant,,,,,
154,The Coronet,,"198 W Cushing St, Tucson, AZ 85701, USA",Arizona,(520) 444-2830,Tucson,32.22017,-110.97647,http://cafecoronet.com/,Bar/Restaurant,,,,,
155,The Dirty Drummer,,"2303 N 44th St, Phoenix, AZ 85008",Arizona,(602) 840-2726,Phoenix,33.47299,-111.98693,https://www.thedirtydrummer.com/,Bar/Restaurant,,,,,
156,The Edison Market,,"447 S Montezuma St, Prescott, AZ 86303",Arizona,(928) 610 7272,Prescott,34.53434,-112.46988,https://www.edisonmarket.com/,Retail Store,,,,,
157,The Genuine,,"6015 N 16th St, Phoenix, AZ 85016",Arizona,(602) 633 1187,Phoenix,33.52437,-112.04719,https://www.thegenuineaz.com/,Bar/Restaurant,,,,,
158,The Little Woody,,"4228 E Indian School Rd, Phoenix, AZ 85018",Arizona,(602) 955 0339,Phoenix,33.49518,-111.98997,https://www.littlewoodyaz.com/,Bar/Restaurant,,,,,
159,The Main Ingredient,,"2337 N 7th St, Phoenix, AZ 85006",Arizona,(602) 843 6246,Phoenix,33.474571,-112.064651,https://www.tmialehouse.com/,Bar/Restaurant,,,,,
160,The Parish,,"6453 N Oracle Rd, Tucson, AZ 85704, USA",Arizona,(520) 797-1233,Tucson,32.33449,-110.97856,https://www.theparishtucson.com/,Bar/Restaurant,,,,,
161,The Parlor,,"1916 E Camelback Rd, Phoenix, AZ 85016",Arizona,(602) 248-2480,Phoenix,33.50966,-112.040385,https://theparlor.us/,Bar/Restaurant,,,,,
162,The Point,,"114 N Montezuma St, Prescott, AZ 86301, USA",Arizona,(928) 237-9027,Precott,34.5425,-112.47034,https://www.thepointbarandlounge.com/,Bar/Restaurant,,,,,
163,The Sidewinder,,"924 E Roosevelt St, Phoenix, AZ 85006",Arizona,(602) 626-8535,Phoenix,33.458468,-112.059263,https://sidewinderphx.com,Bar/Restaurant,,,,,
164,The Stetson Social,,"8245 W Happy Valley Rd, Peoria, AZ 85383",Arizona,(623) 432 2515,Phoenix,33.70874,-112.23557,https://thestetsonsocial.com/,Bar/Restaurant,,,,,
165,The White Rabbit,,"207 N Gilbert Rd, Gilbert, AZ 85234",Arizona,,Phoenix,33.353955,-111.789345,https://www.twr.bar/,Bar/Restaurant,,,,,
166,The Windsor,,"5223 N Central Ave, Phoenix, AZ 85012",Arizona,(602) 279 1111,Phoenix,33.51368,-112.07341,https://windsoraz.com/,Bar/Restaurant,,,,,
167,Then Burger,,"9220 W Glendale Ave, Glendale, AZ 85305",Arizona,(623) 328 9388,Phoenix,33.53865,-112.25763,https://www.thenburger.com/,Bar/Restaurant,,,,,
168,Tinderbox Kitchen,,"34 S San Francisco St, Flagstaff, AZ 86001",Arizona,(928) 226-8400,Flagstaff,35.19573,-111.64862,https://www.tinderboxkitchen.com/,Bar/Restaurant,,,,,
169,Tito & Pep,,"4122 E Speedway Blvd, Tucson, AZ 85712, USA",Arizona,(520) 207-0116,Tucson,32.235845,-110.90478,https://www.titoandpep.com/,Bar/Restaurant,,,,,
170,Top's Liquors ,,"403 W University Dr # 104, Tempe, AZ 85281, USA",Arizona,(480) 967-5643,Phoenix,33.42136333,-111.9448005,http://www.topsliquors.com/,Retail Store,,,,,
171,Torme,,"802 Valley St, Prescott, AZ 86305",Arizona,(928) 778 7123,Prescott,34.55374,-112.4836,https://www.tormeprescott.com/,Bar/Restaurant,,,,,
172,Total Wine & More - Camelback,,"1670 E. Camelback Rd, Phoenix, AZ 85016",Arizona,(602) 279 0540,,33.51019,-112.04582,https://www.totalwine.com/spirits/gin/suncliffe-arizona-botanical-dry-gin/p/346718750?s=1009&igrules=true,Retail Store,,,,,
173,Total Wine & More - Desert Ridge,,"21001 N Tatum Blvd, Phoenix, AZ 85050",Arizona,(480) 515 6211,,33.67716,-111.97724,https://www.totalwine.com/spirits/gin/suncliffe-arizona-botanical-dry-gin/p/346718750?s=1009&igrules=true,Retail Store,,,,,
174,Total Wine & More - Gilbert,,"2224 E. Williams Field Rd, Gilbert, AZ 85295",Arizona,(480) 786 0270,,33.30787,-111.74241,https://www.totalwine.com/spirits/gin/suncliffe-arizona-botanical-dry-gin/p/346718750?s=1009&igrules=true,Retail Store,,,,,
175,Total Wine & More - Glendale,,"17550 North 75th Avenue, Glendale, AZ 85308",Arizona,(623) 486 0162,,33.64277,-112.22095,https://www.totalwine.com/spirits/gin/suncliffe-arizona-botanical-dry-gin/p/346718750?s=1009&igrules=true,Retail Store,,,,,
176,Total Wine & More - Goodyear,,"1416 N. Litchfield Rd, Goodyear, AZ 85395",Arizona,(623) 547 2109,,33.46189,-112.36128,https://www.totalwine.com/spirits/gin/suncliffe-arizona-botanical-dry-gin/p/346718750?s=1009&igrules=true,Retail Store,,,,,
177,Total Wine & More - Prescott,,"1841 E. Highway 69, Prescott, AZ 86301",Arizona,(928) 237 5430,,34.54855,-112.43344,https://www.totalwine.com/spirits/gin/suncliffe-arizona-botanical-dry-gin/p/346718750?s=1009&igrules=true,Retail Store,,,,,
178,Total Wine & More - Queen Creek,,"21072 South Ellsworth Loop Rd, Queen Creek, AZ 85142",Arizona,(602) 325 1653,,33.25686,-111.6396,https://www.totalwine.com/spirits/gin/suncliffe-arizona-botanical-dry-gin/p/346718750?s=1009&igrules=true,Retail Store,,,,,
179,Total Wine & More - Scottsdale,,"10320 North Scottsdale Rd, Scottsdale, AZ 85253",Arizona,(480) 308 0271,,33.57994,-111.92752,https://www.totalwine.com/spirits/gin/suncliffe-arizona-botanical-dry-gin/p/346718750?s=1009&igrules=true,Retail Store,,,,,
180,Total Wine & More - Tempe Emerald Center,,"8544 South Emerald Dr, Tempe, AZÃ¯Â¿Â½85284",Arizona,(480) 753 4225,,33.33674,-111.9701,https://www.totalwine.com/spirits/gin/suncliffe-arizona-botanical-dry-gin/p/346718750?s=1009&igrules=true,Retail Store,,,,,
181,Total Wine & More - Tempe Marketplace,,"1900 E Rio Salado Pkwy, Tempe, AZ 85281",Arizona,(480) 967 0313,,33.4313,-111.96528,https://www.totalwine.com/spirits/gin/suncliffe-arizona-botanical-dry-gin/p/346718750?s=1009&igrules=true,Retail Store,,,,,
182,Total Wine & More - Tucson Oracle,,"4370 North Oracle Rd, Tucson, AZ 85705",Arizona,(520) 887 0174,,32.28555,-110.97709,https://www.totalwine.com/spirits/gin/suncliffe-arizona-botanical-dry-gin/p/346718750?s=1009&igrules=true,Retail Store,,,,,
183,Total Wine & More - Tucson Park Place Mall,,"5870 E Broadway Blvd, Tucson, AZ 85711",Arizona,(520) 745 0540,,32.22082,-110.8656,https://www.totalwine.com/spirits/gin/suncliffe-arizona-botanical-dry-gin/p/346718750?s=1009&igrules=true,Retail Store,,,,,
184,Tratto,,"1505 E Van Buren St, Phoenix, AZ 85006",Arizona,(602) 296 7761,Phoenix,33.451118,-112.049606,https://www.trattophx.com/,Bar/Restaurant,,,,,
185,Trevor's ,,"7340 E McDowell Rd, Scottsdale, AZ 85257, USA",Arizona,(480) 581-8923,Phoenix,33.466225,-111.922742,https://www.trevors.com/,Retail Store,,,,,
186,Trevor's Arcadia,,"3601 E Indian School Rd, Phoenix, AZ 85018",Arizona,(602) 767-4423,Phoenix,33.49451,-112.00265,https://www.trevors.com/,Retail Store,,,,,
187,Trevor's North,,"7000 East Mayo Blvd, N. Scottsdale, AZ 85054",Arizona,(480) 608 1719,Phoenix,33.65528,-111.92544,https://www.trevors.com/,Retail Store,,,,,
188,Triple Creek Kitchen,,"300 N Montezuma St, Prescott, AZ 86301, USA",Arizona,(928) 277-4637,Precott,34.54542,-112.47039,https://www.facebook.com/pg/TripleCreekKitchenandSpirits,Bar/Restaurant,,,,,
189,Uchi Scottsdale,,"3821 N Scottsdale Rd, Scottsdale, AZ 85251",Arizona,(480) 916-0916,Phoenix,33.4934,-111.9235,https://uchi.uchirestaurants.com/location/scottsdale/,Bar/Restaurant,,,,,
190,Unicorn Zebra,,"82 S Stone Ave, Tucson, AZ 85701",Arizona,,Tucson,32.220454,-110.971418,https://www.unicornzebratucson.com/,Bar/Restaurant,,,,,
191,Valentine,,"4130 N 7th Ave, Phoenix, AZ 85013, USA",Arizona,(602) 612-2961,Phoenix,33.49595,-112.08396,http://www.valentinephx.com/,Bar/Restaurant,,,,,
192,Valley Bar,,"130 N Central Ave, Phoenix, AZ 85004, USA",Arizona,(602) 368-3121,Phoenix,33.449975,-112.07413,https://valleybarphx.com/,Bar/Restaurant,,,,,
193,Vecina,,"3433 N 56th St, Phoenix, AZ 85013, USA",Arizona,(602) 675-2000,Phoenix,33.4887,-111.960455,https://www.vecinaphx.com/,Bar/Restaurant,,,,,
194,Vivace,,"6440 N Campbell Ave, Tucson, AZ 85718",Arizona,(520) 795-7221,Tucson,32.324,-110.92744,https://www.vivacetucson.com/,Bar/Restaurant,,,,,
195,Walter Studios,,"747 W Roosevelt St, Phoenix, AZ 85007",Arizona,(602) 586 5906,Phoenix,33.45804,-112.083,https://walterstudios.com/,Bar/Restaurant,,,,,
196,We-Ko-Pa Resort,,"10438 Wekopa Way, Fort McDowell, AZ 85264",Arizona,(480) 789-5300,Phoenix,33.67495,-111.670753,https://www.wekopacasinoresort.com/,Bar/Restaurant,,,,,
197,Welcome Diner,,"929 E Pierce St, Phoenix, AZ 85006, USA",Arizona,(602) 495-1111,Phoenix,33.45554,-112.06072,http://welcomediner.net/,Bar/Restaurant,,,,,
198,Westbound,,"267 South Avenida del Convento 12, Tucson, AZ 85745",Arizona,(520) 867-830,Tucson,32.218175,-110.98438,http://westboundtucson.com/,Retail Store,,,,,
199,Wild Garlic Grill,,"2870 E Skyline Dr, Tucson, AZ 85718",Arizona,(520) 206-0017,Tucson,32.33414,-110.87583,https://www.wildgarlicgrill.com/,Bar/Restaurant,,,,,
200,Zerai's International Bar,,"2731 E Broadway Blvd, Tucson, AZ 85716",Arizona,(520) 239-5145,Tucson,"2731 E Broadway Blvd, Tucson, AZ 85716",-110.9311,https://www.z-street.com/zerais/,Bar/Restaurant,,,,,
201,Zio Peppe,,"6502 E Tanque Verde Rd, Tucson, AZ 85715",Arizona,(520) 347-8857,Tucson,32.2504,-110.8527,https://www.ziopeppe.com/,Bar/Restaurant,,,,,
202,Zona 78,,"7301 E Tanque Verde Rd, Tucson, AZ 85715, USA",Arizona,(520) 296-7878,Tucson,32.25118,-110.83612,https://zona78.com/,Bar/Restaurant,,,,,
203,Alembic,,"1725 Haight St, San Francisco, CA 94117",California,(415) 666-0822,San Francisco,37.769,-122.447,https://www.alembicsf.com,Bar/Restaurant,,,,,
204,Alkali Rye,,"3256 Grand Ave, Oakland, CA 94610",California,(510) 488-3637,Oakland,37.8113,-122.2458,https://www.alkalirye.com,Retail Store,,,,,
205,All Day Baby,,"3200 Sunset Blvd, Los Angeles, CA 90026",California,(323) 786 0950,Los Angeles,34.08318,-118.27054,https://www.alldaybabyla.com/,Bar/Restaurant,,,,,
206,Alta Adams Restaurant,,"5359 W Adams Blvd, Los Angeles, CA 90016",California,(323) 571 4999,Los Angeles,34.032711,-118.359947,https://altaadams.com/,Bar/Restaurant,,,,,
207,Alta Baja Market,,"201-200 E 4th St, Santa Ana, CA 92701",California,(714) 783 2252,,33.74838,-117.86609,https://www.altabajamarket.com/,Retail Store,,,,,
208,Asterid,,"141 S Grand Ave, Los Angeles, CA 90012",California,(213) 972-3535,Los Angeles,34.055452,-118.249794,https://www.asteridla.com,Bar/Restaurant,,,,,
209,Baby Gee,,"1227 E 4th St, Long Beach, CA 90802",California,,Long Beach,33.77188,-118.17572,https://babygeebar.com/,Bar/Restaurant,,,,,
210,Bacari Silverlake,,"3626 Sunset Blvd, Los Angeles, CA 90026",California,(323) 986-6763,Los Angeles,34.0896,-118.2728,http://bacarisilverlake.com,Bar/Restaurant,,,,,
211,Bar & Garden,,"6142 Washington Blvd, Culver City, CA 90232",California,(310) 876 0759,Los Angeles,34.030811,-118.378838,https://barandgarden.com/,Retail Store,,,,,
212,Bar Etoile,,"632 N Western Ave, Los Angeles, CA 90004",California,(323) 380 5040,Los Angeles,34.082824,-118.308867,https://www.baretoile.com,Bar/Restaurant,,,,,
213,Bar Flores,,"1542 Sunset Blvd, Los Angeles, CA 90026",California,(213) 2666 8006,Los Angeles,34.076302,-118.256416,https://www.barflores.com/,Bar/Restaurant,,,,,
214,Block Party,,"5052 York Blvd, Los Angeles, CA 90042",California,(323) 407-6142,Los Angeles,34.1215,-118.2092,http://www.blockpartyhighlandpark.com,Bar/Restaurant,,,,,
215,Bodega Rosette,,"3772 30th St, San Diego, CA 92104",California,(619) 255-0896,San Diego,32.74678,-117.13036,https://www.mabelsgonefishing.com/,Retail Store,,,,,
216,Botanica,,"1620 Silver Lake Blvd, Los Angeles, CA 90026, USA",California,(323) 522-6106,Los Angeles,34.0883,-118.26784,http://www.botanicarestaurant.com/,Bar/Restaurant,,,,,
217,Bottle Bacchanal,,"4126 18th St, San Francisco, CA 94114",California,(415) 551-7277,San Francisco,37.76104,-122.43573,https://www.bottlebacchanal.com/,Retail Store,,,,,
218,Bottlecraft,,"3007 University Ave, San Diego, CA 92104",California,(619) 487-9493,San Diego,32.748,-117.129,https://www.bottlecraft.com,Bar/Restaurant,,,,,
219,Campfire,,"2725 State Street, Carlsbad, CA 92008",California,(760) 637-5121,San Diego,33.160835,-117.350225,https://www.thisiscampfire.com,Bar/Restaurant,,,,,
220,Capri Club,,"4604 Eagle Rock Blvd, Los Angeles, CA 90041",California,(323) 539-8842,Los Angeles,34.1374,-118.2168,https://capriclublosangeles.com,Bar/Restaurant,,,,,
221,Cask on College,,"3185 College Ave, Berkeley, CA 94705",California,(510) 282-1047,Berkeley,37.8537,-122.253,https://www.caskandbarrel.com/,Retail Store,,,,,
222,Cavaa ,,"Luma Hotel, 100 Channel St, San Francisco, CA 94158",California,(415) 816-1315,San Francisco,37.77536,-122.390388,https://www.cavanasf.com/,Bar/Restaurant,,,,,
223,Common Stock,,"3805 Fifth Ave, San Diego, CA 92103",California,(619) 310 5298,San Diego,32.74719,-117.16013,https://www.eatcommonstock.com/,Bar/Restaurant,,,,,
224,Crest Liquor Co,,"3787 Ingraham St, San Diego, CA 92109",California,(858) 273-3081,San Diego,32.7994,-117.2479,http://www.crestliquorco.com/,Retail Store,,,,,
225,Dalida,,"101 Montgomery St Suite 100, San Francisco, CA 94129",California,(415) 237 1999,San Francisco,37.79982,-122.45974,https://www.dalidasf.com/,Bar/Restaurant,,,,,
226,Erewhon - Beverly Hills,,"339 N Beverly Dr, Beverly Hills, CA 90210",California,(424) 313 1962,Los Angeles,34.069069,-118.401581,https://erewhonmarket.com/,Retail Store,,,,,
227,Erewhon - Palisades,,"15285 W Sunset Blvd, Pacific Palisades, CA 90272",California,(310) 561 8898,Los Angeles,34.047211,-118.525497,https://erewhonmarket.com/,Retail Store,,,,,
228,Erewhon - Pasadena,,"475 S Lake Ave, Pasadena, CA 91101",California,(626) 600 5665,Los Angeles,34.137562,-118.132698,https://erewhonmarket.com/,Retail Store,,,,,
229,Erewhon - Silverlake,,"4121 Santa Monica Blvd, Los Angeles, CA 90029, USA",California,(323) 340-1557,Los Angeles,34.09002,-118.27274,https://erewhonmarket.com/,Retail Store,,,,,
230,Everson Royce,,"155 N Raymond Ave, Pasadena, CA 91103",California,(626) 765 9334,Los Angeles,34.148312,-118.149338,https://www.eversonroyce.com/,Retail Store,,,,,
231,Flask & Field,,"767 S Alameda St, Los Angeles, CA 90021",California,,Los Angeles,34.034997,-118.240114,https://flaskandfield.com/,Retail Store,,,,,
232,Flask Highland Park,,"5900 N Figueroa St, Los Angeles, CA 90042",California,(323) 381 5533,Los Angeles,34.110538,-118.190773,https://flaskfinewines.com/,Retail Store,,,,,
233,Foreign Cinema,,"2534 Mission Street, San Francisco, CA 94110",California,(415) 648-7600,San Francisco,37.7561,-122.4186,https://foreigncinema.com,Bar/Restaurant,,,,,
234,Gold Palm,,"1900 Telegraph Ave, Oakland, CA 94612",California,(510) 817-4002,Oakland,37.8085,-122.2683,https://www.goldpalmoakland.com/,Bar/Restaurant,,,,,
235,Good Housekeeping HLP,,"5635 N Figueroa St, Los Angeles, CA 90042",California,(323) 739-6928,Los Angeles,34.1092,-118.1935,http://www.goodhousekeepinghlp.com,Bar/Restaurant,,,,,
236,Great American Craft Spirits,,"29911 Aventura E, Rancho Santa Margarita, CA 92688",California,(949) 264-6058,,33.63612,-117.6083,https://gacraftspirits.com/,Retail Store,,,,,
237,Gus's Market,,"1530 Haight St, San Francisco, CA 94117",California,(415) 440 2454,San Francisco,37.76916,-122.44708,https://www.gussmarket.com/,Retail Store,,,,,
238,Handy Liquor,,"3001 Adams Ave, San Diego, CA 92116",California,(619) 281-2060,San Diego,32.762923,-117.130173,http://www.handyliquor.com,Retail Store,,,,,
239,Happy Medium,,"4002 30th St, San Diego, CA 92104",California,(619) 310 5642,San Diego,32.750568,117.131027,https://www.happymediumsd.com/,Bar/Restaurant,,,,,
240,Highland Park Wines,,"5918 N Figueroa St, Los Angeles, CA 90042, United States",California,(323) 255-2236,Los Angeles,34.111457,-118.192819,https://highlandparkwines.com/,Retail Store,,,,,
241,Holy Water,,"309 Cortland Ave, San Francisco, CA 94110",California,(415) 570-8916,San Francisco,37.7396,-122.4173,https://holywatersf.com,Bar/Restaurant,,,,,
242,Isla,,"2424 Main St, Santa Monica, CA 90405",California,(310) 310-2137,Los Angeles,34.003213,-118.489819,https://www.isla-la.com,Bar/Restaurant,,,,,
243,Jacumba Hot Springs Hotel,,"44500 Old Highway 80, Jacumba, CA 91934",California,(619) 766-4333,,32.6183,-116.1884,https://jacumba.com,Bar/Restaurant,,,,,
244,K&L Wine Merchants - Culver City,,"4235 Sepulveda Blvd, Culver City, Ca, 90230",California,(800) 247 5987,Los Angeles,34.00497,-118.4109,https://www.klwines.com/,Retail Store,,,,,
245,K&L Wine Merchants - Hollywood,,"1400 Vine St, Hollywood, CA 90028",California,(323) 464 9463,Los Angeles,34.096439,-118.326332,https://www.klwines.com/,Retail Store,,,,,
246,Kingfisher,,"2469 Broadway, San Diego, CA 92102",California,(619) 432 1014,San Diego,32.71552,-117.141,https://kingfishersd.com/,Bar/Restaurant,,,,,
247,Ledgers Liquor,,"1399 University Ave, Berkeley, CA 94702",California,(510) 540 9243,East Bay / Oakland,37.870338,-122.284668,https://www.instagram.com/ledgersliquors/?hl=en,Retail Store,,,,,
248,Little Bear Bottle Shop,,"28578 CA-18, Skyforest, CA 92385",California,(909)744 8861,Los Angeles,34.23579,-117.17973,https://littlebearbottleshop.com/,Retail Store,,,,,
249,Loreto,,"1991 Blake Ave, Los Angeles, CA 90039",California,,Los Angeles,34.10133,-118.244049,https://www.loreto.la/,Bar/Restaurant,,,,,
250,Mabel's Gone Fishing,,"3770 30th St, San Diego, CA 92104",California,(619) 228-9851,San Diego,32.74673,-117.13015,https://www.mabelsgonefishing.com,Bar/Restaurant,,,,,
251,Mixing Glass & Market,,"1500 Adams Ave, Costa Mesa, CA 92626",California,(714) 9759952,Costa Mesa,33.67364,-117.92116,https://mixingglassandmarket.com/,Retail Store,,,,,
252,Moon Room,,"7174 Melrose Avenue, Los Angeles, CA 90046",California,,Los Angeles,34.08322,-118.34574,,Bar/Restaurant,,,,,
253,Night + Market,,"9043 Sunset Blvd, West Hollywood, CA 90069",California,(310) 275 9724,Los Angeles,34.09081,-118.37571,https://www.nightmarketla.com/,Bar/Restaurant,,,,,
254,Night On Earth,,"3256 Cahuenga Blvd W, Los Angeles, CA 90068",California,,Los Angeles,34.12976,-118.349036,https://www.nighton.earth/,Bar/Restaurant,,,,,
255,Noble Experiment,,"777 G Street, San Diego, CA 92101",California,(619) 888-4713,San Diego,32.7127,-117.1577,https://nobleexperimentsd.com,Bar/Restaurant,,,,,
256,Pacific Cocktail Haven,,"550 Sutter St, San Francisco, CA 94102",California,(415) 398-0195,San Francisco,37.788659,-122.409065,https://www.pacificcocktailsf.com,Bar/Restaurant,,,,,
257,Prizefighter,,"6702 Hollis St, Emeryville, CA 94608",California,(510) 428 1470,East Bay / Oakland,37.8491,-122.29218,https://prizefighterbottleshop.com/,Retail Store,,,,,
258,PSBS at Market Market,,"1555 S Palm Canyon Dr, Palm Springs, CA 92264",California,(760) 333-0083,Palm Springs,33.801949,-116.546791,https://www.psbottleshop.com/,Retail Store,,,,,
259,Ramirez Liquor,,"2765 E Olympic Blvd, Los Angeles, CA 90023",California,(323) 266 2337,Los Angeles,34.023622,-118.218229,https://ramirezliquor.com/,Retail Store,,,,,
260,Redbird,,"114 E 2nd St, Los Angeles, CA 90012",California,(213) 788-1191,Los Angeles,34.0505,-118.2434,https://redbird.la/,Bar/Restaurant,,,,,
261,Saltwater Oyster Depot,,"12781 Sir Francis Drake Blvd, Inverness, CA 94937 ",California,(415) 932-9470,San Francisco,38.09659,-122.85199,https://www.saltwateroysterdepot.com/,Bar/Restaurant,,,,,
262,Seneca Trattoria,,"901 Bayfront Ct, San Diego, CA 92101",California,(619) 312-1212,San Diego,32.7163,-117.1698,https://www.senecatrattoria.com,Bar/Restaurant,,,,,
263,Stanley's Wet Goods,,"9620 Venice Blvd, Culver City, CA 90232",California,(424) 341 2870,Los Angeles,34.02441,-118.39619,https://www.stanleys.la/,Retail Store,,,,,
264,The Brig,,"1515 Abbot Kinney Blvd, Venice, CA 90291",California,(310) 399 7537,Los Angeles,33.990372,-118.464081,https://thebrig.com/,Bar/Restaurant,,,,,
265,The Grant,,"3515 Eagle Rock Blvd, Los Angeles, CA 90065",California,(323) 871 8888,Los Angeles,34.11665,-118.2354,https://thegrantla.com/,Bar/Restaurant,,,,,
266,Thunderbolt,,"1263 W Temple St, Los Angeles, CA 90026",California,,Los Angeles,34.06633,-118.254189,https://www.thunderboltla.com/,Bar/Restaurant,,,,,
267,Villa Royale,,"1620 S Indian Trail, Palm Springs, CA 92264",California,(760) 327-2314,Palm Springs,33.8023,-116.5442,https://villaroyale.com,Bar/Restaurant,,,,,
268,West Altadena Wines & Spirits,,"2311 Lincoln Ave, Altadena, CA 91001",California,(626) 765-9334,Los Angeles,34.186,-118.1475,http://www.wawinesandspirits.com,Retail Store,,,,,
269,Alphabet City Wine Co.,,"100 Loisaida Ave, New York, NY 10009",New York,(212) 505-9463,Manhattan,40.72381,-73.97886,https://www.abcwinecompany.com/,Retail Store,,,,,
270,Archive Wine & Spirits,,"270 Greenwich St, New York, NY 10007",New York,(212) 587 5730,Manhattan,40.71563,-74.012108,,Retail Store,,,,,
271,Arden,,"522A Washington Ave, Brooklyn, NY 11238",New York,(718) 783 1925,Brooklyn,40.67979,-73.96399,https://arden.nyc/,Bar/Restaurant,,,,,
272,Astor Wines,,"399 Lafayette St, New York, NY 10003",New York,(212) 674 7500,Manhattan,40.72794,-73.992882,https://www.astorwines.com/,Retail Store,,,,,
273,Atlas Wine Merchants,,"1069 Bedford Ave, Brooklyn, NY 11216, USA",New York,(718) 676 6293,Brooklyn,40.68741,-73.95456,https://www.atlaswinemerchants.com/,Retail Store,,,,,
274,Babbo,,"110 Waverly Pl, New York, NY 10011",New York,(212) 777 0303,Manhattan,40.732288,-73.999298,https://www.babbonyc.com/,Bar/Restaurant,,,,,
275,Bar Meridian,,"406 Prospect Pl, Brooklyn, NY 11238, USA",New York,(347) 295 0185,Brooklyn,40.676315,-73.963075,https://www.barmeridian.com/,Bar/Restaurant,,,,,
276,Baytowne Wine & Spirits,,"1900 Empire Blvd, Webster, NY 14580, USA",New York,(585) 787 9659,Upstate,43.20101,-77.37883,https://www.baytownewine.com/,Retail Store,,,,,
277,Bluebird Wine & Spirits,,"5059 US-209, Accord, NY 12404, USA",New York,(845) 626 0140,Upstate,41.78886,-74.23115,https://www.bluebirdwineshop.com/,Retail Store,,,,,
278,Bogey's Bottled Goods,,"54655 NY-25, Southold, NY 11971",New York,(631) 765 5434,Long Island,41.0656,-72.42593,https://www.bogeysny.com/,Retail Store,,,,,
279,Bondi Wine & Spirits,,"350 Franklin Ave, Brooklyn, NY 11238",New York,(347) 955-4921,New York,40.684,-73.957,https://www.bondiwinesandspirits.com/,Retail Store,,,,,
280,Bondi Wines & Spirits,,"350 Franklin Ave, Brooklyn, NY 11238",New York,(347) 955-4921,Brooklyn,40.6865,-73.9589,https://www.bondiwinesandspirits.com,Retail Store,,,,,
281,Brix Wine Shop,,"170 Avenue B, New York, NY 10009",New York,(212) 777 0691,Manhattan,40.72734,-73.97986,http://www.brixwines.com/,Retail Store,,,,,
282,Bryant Park Wines,,"108 W 42nd St, New York, NY 10036",New York,(646) 398 7766,Manhattan,40.755994,-73.984305,https://bryantparkwinesnyc.com/,Retail Store,,,,,
283,Cafe Mutton,,"757 Columbia St, Hudson, NY 12534, USA",New York,(518) 671 6230,Upstate,42.24722,-73.78029,http://www.cafemutton.com/,Bar/Restaurant,,,,,
284,Capital Wine & Spirits,,"348 State St, Albany, NY 12210",New York,(518) 689 0160,Upstate,42.65554,-73.7643,https://capitalwinealbany.com/,Retail Store,,,,,
285,Chambers,,"94 Chambers St, New York, NY 10007, USA",New York,(212) 580 3572,Mahattan,40.71463,-74.00752,https://chambers.nyc/,Bar/Restaurant,,,,,
286,Chez Ma Tante,,"90 Calyer St, Brooklyn, NY 11222, USA",New York,(718) 389 3606,Brooklyn,40.7269,-73.9576,https://www.chezmatantebk.com/,Bar/Restaurant,,,,,
287,Chino Grande,,"253 Grand Street, Brooklyn, NY 11211, USA",New York,(917) 909 0466,Brooklyn,40.7135,-73.95855,https://chinograndenyc.com/,Bar/Restaurant,,,,,
288,Colonia Verde,,"219 DeKalb Ave, Brooklyn, NY 11205, USA",New York,(347) 689 4287,Brooklyn,40.68969,-73.970705,https://www.coloniaverdenyc.com/,Bar/Restaurant,,,,,
289,Comodo at The Freehand,,"23 Lexington Ave, New York, NY 10010, USA",New York,(212) 475 1922,Mahattan,40.7396,-73.9843,https://comodonyc.com/,Bar/Restaurant,,,,,
290,Convive Wine & Spirits,,"196 Avenue A, New York, NY 10009",New York,(917) 383 2111,Manhattan,40.729141,-73.980988,https://www.convivewines.com/,Retail Store,,,,,
291,Dandy Wine & Spirits,,"37 S 4th St, Brooklyn, NY 11249, USA",New York,(718) 599 1422,Brooklyn,40.71315,-73.9665,https://www.dandywineshop.com/,Retail Store,,,,,
292,Dawa's,,"51-18 Skillman Ave, Woodside, NY 11249, USA",New York,(718) 899 8629,Brooklyn,40.745765,-73.912695,https://www.dawasnyc.com/,Bar/Restaurant,,,,,
293,Drink Chatham,,"15 Dardess Dr, Chatham, NY 12037",New York,(518) 392 7031,Upstate,42.34992,-73.60526,https://drinkchathamny.com/,Retail Store,,,,,
294,Drink PLG,,"492 Flatbush Ave, Brooklyn, NY 112055, USA",New York,(718) 856 0840,Brooklyn,40.66209,-73.96198,https://www.drinkplg.com/,Retail Store,,,,,
295,El PingÃÂ¼ino,,"25 Greenpoint Ave, Brooklyn, NY 11222",New York,(347) 463 9509,Brooklyn,40.72991,-73.95978,https://www.pinguinogreenpoint.com/,Bar/Restaurant,,,,,
296,Ellen's Wine & Spirits,,"50-05 Metropolitan Ave, Queens, NY 11385",New York,(929) 614 7310,Queens,40.71391,-73.9161,https://ellenswinesspirits.com/,Retail Store,,,,,
297,Ester Wine & Spirits,,"57 Front St, Kingston, NY 12401, USA",New York,(845) 331 1921,Upstate,41.935275,-74.021135,https://www.esterwine.com/,Retail Store,,,,,
298,Everything's Jake,,"54 E 13th St, New York, NY 10003",New York,(212) 923 0584,Manhattan,40.734169,-73.991638,https://everythingsjake.com/,Bar/Restaurant,,,,,
299,Extra Extra,,"549 W Utica St, Buffalo, NY 14213",New York,(716) 248 2994,Upstate,42.91159,-78.88728,https://www.extraextrapizza.com/,Bar/Restaurant,,,,,
300,Fermented Grapes,,"651 Vanderbilt Ave, Brooklyn, NY 11238",New York,(718) 230 3216,Brooklyn,40.67734,-73.96862,https://fermentedbk.com/,Retail Store,,,,,
301,Fiasco! Wine & Spirits,,"1148 Union St, Brooklyn, NY 11225, USA",New York,(347) 365 2042,Brooklyn,40.66902,-73.95365,https://fiascobk.com/,Retail Store,,,,,
302,Flatiron Wine & Spirits,,"873 Broadway, New York, NY 10003",New York,(212) 477 1315,Manhattan,40.738159,-73.990417,https://nyc.flatiron-wines.com/,Retail Store,,,,,
303,Franklin Wine & Spirits,,"608 Franklin Ave, Brooklyn, NY 11238, USA",New York,(718) 857 7778,Brooklyn,40.67741,-73.95568,https://608franklinwines.com/,Retail Store,,,,,
304,Gabriel Kreuther,,"41 W 42nd St, New York, NY 10036",New York,(212) 257-5826,New York,40.7544,-73.981,https://www.gknyc.com/,Bar/Restaurant,,,,,
305,Gaskins,,"2 Church Ave, Germantown, NY 12526, USA",New York,(518) 537 2107,Upstate,42.13226,-73.88051,https://www.gaskinsny.com/,Bar/Restaurant,,,,,
306,Grapefruit Wines,,"127 Warren St, Hudson, NY 12534, USA",New York,(518) 697 6121,Upstate,42.25472,-73.79378,https://www.grapefruitwines.com/,Retail Store,,,,,
307,Heritgage Wines,,"237 DeKalb Ave, Brooklyn, NY 11205",New York,,Brooklyn,40.6897,-73.96976,https://heritagewinesnyc.com/,Retail Store,,,,,
308,Hotel Delmano,,"82 Berry St, Brooklyn, NY 11211, USA",New York,(718) 387 1945,Brooklyn,40.71975,-73.958075,https://www.hoteldelmano.com/,Bar/Restaurant,,,,,
309,Hotel Kinsley,,"301 Wall St, Kingston, NY 12401, USA",New York,(845) 768 3620,Upstate,41.93391,-74.019925,https://www.hotelkinsley.com/,Bar/Restaurant,,,,,
310,Hurley Wine & Liquor Market,,"294 NY-375, West Hurley, NY 12491",New York,(845) 679-8428,Upstate,42.0084,-74.1235,https://www.hurleywineandliquor.com,Retail Store,,,,,
311,Kingston Wine Co.,,"65 Broadway, Kingston, NY 12401, USA",New York,(845) 340 9463,Upstate,41.91951,-73.984765,https://www.kingstonwine.com/,Retail Store,,,,,
312,KIT,,"657 Washington Ave, Brooklyn, NY 11238, USA",New York,(718) 636 2900,Brooklyn,40.6777,-73.96355,https://www.kitbklyn.com/,Bar/Restaurant,,,,,
313,La Meme Chose,,"116 Conselyea Street, Brooklyn, NY 11211",New York,,Brooklyn,40.715,-73.951,https://lamemechosewine.com/,Retail Store,,,,,
314,Leland Eating & Drinking House,,"755 Dean St, Brooklyn, NY 11238, USA",New York,(646) 470 7008,Brooklyn,40.679765,-73.965175,https://www.lelandbrooklyn.com/,Bar/Restaurant,,,,,
315,Leyanda,,"221 Smith St, Brooklyn, NY 11201",New York,(347) 987 3260,Brooklyn,40.68428,-73.99188,https://www.leyendabk.com/,Bar/Restaurant,,,,,
316,Lise & Vito,,"126A Nassau Ave, Greenpoint, Brooklyn, NY 11222",New York,,Brooklyn,40.7242,-73.9508,https://www.liseandvito.com/,Bar/Restaurant,,,,,
317,Main Wines & Liquors,,"440 Main St, New Rochelle, NY 10801",New York,(914) 632-2822,Upstate,40.911491,-73.782925,https://www.mainwinesusa.com,Retail Store,,,,,
318,Mansion Inn,,"801 NY-29, Rock City Falls, NY 12863",New York,(518) 885 1607,Upstate,43.06653,-73.92766,https://www.themansionsaratoga.com/,Bar/Restaurant,,,,,
319,Marlow & Sons,,"81 Broadway, Brooklyn, NY 11249",New York,(718) 384 1441,Brooklyn,40.71069,-73.96567,https://www.marlowandsons.com/,Bar/Restaurant,,,,,
320,Mile 303,,"416 Main St, Medina, NY 14103, USA",New York,(585) 206 1407,Upstate,43.22133,-78.38715,https://www.mile303.com/,Bar/Restaurant,,,,,
321,Mr. Melo,,"61 Withers St, Brooklyn, NY 11211",New York,(347) 294-0758,Brooklyn,40.717339,-73.94824,https://www.mrmelobar.com,Bar/Restaurant,,,,,
322,Myrtle Wine & Spirits,,"166 Myrtle Ave, Brooklyn, NY 11201, USA",New York,(347) 422 0015,Brooklyn,40.69346,-73.98161,https://www.myrtlewines.com/,Retail Store,,,,,
323,Noble Root Wine & Spirits,,"515 Main St, Buffalo, NY 14203, USA",New York,(716) 218 9851,Upstate,42.88768,-78.873417,https://www.nobleroot716.com/,Retail Store,,,,,
324,Oddly Enough,,"397 Tompkins Ave, Brooklyn, NY 11216, USA",New York,(929) 385 4920,Brooklyn,40.68386,-73.94387,https://www.oddlyenoughbar.com/,Bar/Restaurant,,,,,
325,Otway,,"930 Fulton St, Brooklyn, NY 11238, USA",New York,(917) 909 1889,Brooklyn,40.6827,-73.9638,https://www.otwaynyc.com/,Bar/Restaurant,,,,,
326,Padrona,,"17 N 4th St, Hudson, NY 12534, USA",New York,(518) 945 8224,Upstate,42.2517,-73.78818,https://www.instagram.com/padrona_hudson/,Bar/Restaurant,,,,,
327,Parlour Wine & Spirits,,"128 Nassau Ave, Brooklyn, NY 11222, USA",New York,(718) 349 8183,Brooklyn,40.724405,-73.94836,https://parlourwines.com/,Retail Store,,,,,
328,People's Wine Shop,,"115 Delancey St, New York, NY 10002, USA",New York,(212) 202 2550,Mahattan,40.71807,-73.987955,https://www.peoples.wine/,Retail Store,,,,,
329,Pinch Chinese,,"177 Prince St, New York, NY 10012",New York,(212) 328 7880,Manhattan,40.726452,-74.001801,https://www.pinchchinese.com/,Bar/Restaurant,,,,,
330,Pines Liquor Shop,,"57 Picketty Ruff Walk, Fire Island Pines, NY 11782",New York,(631) 597 6442,Long Island,40.66511,-73.06981,https://www.pinesliquorshop.com/,Retail Store,,,,,
331,Pinnacle Liquor,,"1720 Monroe Avenue, Rochester, NY 14618, USA",New York,(585) 271 4931,Upstate,43.13005,-77.56802,https://www.pinnacleliquor.com/,Retail Store,,,,,
332,Post,,"217 E 3rd St, New York, NY 10009",New York,(917) 261 2613,Manhattan,40.721675,-73.981848,https://www.post-nyc.com/,Bar/Restaurant,,,,,
333,Post Road Market,,"1000 Boston Post Road, Rye, NY 10580",New York,(914) 967-2276,Upstate,40.98177,-73.68335,https://postroadmarket.com,Retail Store,,,,,
334,Redhook Tavern,,"329 Van Brunt St, Brooklyn, NY 11231",New York,(917) 966 6094,Brooklyn,40.67783,-74.01203,https://www.redhooktavern.com/,Bar/Restaurant,,,,,
335,Reed Street Bottle Shop,,"34 Reed St, Coxsackie, NY 12051",New York,,Upstate,42.35154,-73.79689,https://www.reedstreetbottleshop.com/,Retail Store,,,,,
336,Roberta's,,"261 Moore St, Brooklyn, NY 11206, USA",New York,(718) 417 1118,Brooklyn,40.70517,-73.93352,https://www.robertaspizza.com/,Bar/Restaurant,,,,,
337,Rudy's Wine & Liquor,,"147 Main Street, Cooperstown, NY 13326",New York,(607) 547-8297,Upstate,42.6997,-74.9231,https://www.rudysliquor.com,Retail Store,,,,,
338,Sage Wine & Spirits,,"55 Front St, Ballston Spa, NY 12020",New York,(518) 490 2095,Upstate,42.989819,-73.851609,,Retail Store,,,,,
339,Savvy Sips,,"50 Main St, Irvington, NY 10533",New York,(914) 591 7477,Upstate,41.03941,-73.87001,https://www.savvysipsny.com/,Retail Store,,,,,
340,Simple Syrup,,"810 Nostrand Ave, Brooklyn, NY 11216, USA",New York,(347) 406 5336,Brooklyn,40.67102,-73.95054,https://www.simplesyrup.nyc/,Retail Store,,,,,
341,Sip Wines & Spirits,,"67 5th Ave, Brooklyn, NY 11217",New York,(718) 638 6105,Brooklyn,40.68059,-73.97733,,Retail Store,,,,,
342,Slope Celllars,,"436 7th Ave, Brooklyn, NY 11215",New York,(718) 369 7307,Brooklyn,40.6636,-73.98471,https://shop.slopecellars.com/,Retail Store,,,,,
343,Smith & Vine,,"317 Smith St, Brooklyn, NY 11231, USA",New York,(718) 243 2864,Brooklyn,40.68114,-73.994045,https://www.smithandvine.com/,Retail Store,,,,,
344,South Soho,,"191 Centre St, New York, NY 10013",New York,(646) 355 8693,Manhattan,40.71868,-73.99959,https://www.southsohobar.com/,Bar/Restaurant,,,,,
345,Ssel Rose,,"1 Delancey St, New York, NY 10002",New York,(646) 450 2557,Manhattan,40.71998,-73.99374,https://www.selrrose.com/,Bar/Restaurant,,,,,
346,Starr Wines,,"321 Starr St, G2 Brooklyn, NY 11237, USA",New York,(718) 301 8433,Brooklyn,40.70807,-73.92051,https://starrwinesbk.shopsettings.com/,Retail Store,,,,,
347,Stella's Juice Box,,"983 Manhattan Ave, Brooklyn, NY 11222",New York,(718) 383 1414,Brooklyn,40.7327,-73.95498,https://stellasjuicebox.com/,Retail Store,,,,,
348,Sunshine Co.,,"780 Washington Ave, Brooklyn, NY 11238",New York,(347) 750 5275,Brooklyn,40.674751,-73.963341,http://www.sunshinecobk.com/,Bar/Restaurant,,,,,
349,Swan Dive,,"289 Alexander St, Rochester, NY 14607, USA",New York,(585) 413 3306,Upstate,43.15386,-77.59539,https://www.swandiveroc.com/,Bar/Restaurant,,,,,
350,Table Wine,,"79-14 37th Ave, Jackson Heights, NY 11372",New York,(718) 478-9463,Brooklyn,40.7482,-73.8916,https://www.tablewine-ny.com,Retail Store,,,,,
351,Terry's West Village Wine & Spirits,,"35 Greenwich Ave, New York, NY 10014, USA",New York,(212) 255 0222,Mahattan,40.735115,-74.000455,https://www.terrysnyc.com/,Retail Store,,,,,
352,The Golden Swan,,"314 W 11th St, New York, NY 10014",New York,(212) 597 2681,Manhattan,40.735611,-74.006638,https://www.tgsnyc.com/,Bar/Restaurant,,,,,
353,The Mouzon House,,"1 York Street, Saratoga Springs, NY 12866",New York,(518) 226-0014,Upstate,43.0845,-73.7833,https://mouzonhouse.net,Bar/Restaurant,,,,,
354,The Natural Wine Co.,,"211 N 11th St, Brooklyn, NY 11211, USA",New York,(646) 397 9463,Brooklyn,40.71884,-73.9532,https://naturalwine.com/,Retail Store,,,,,
355,The Rockwell Place,,31 Rockwell Place ,New York,,Brooklyn,40.68906,-73.97918,https://therockwellplace.com/info,Bar/Restaurant,,,,,
356,The Spaniard,,"190 West 4th Street, New York, NY 10014",New York,(212) 918 1986,Manhattan,40.73304,-74.00222,https://www.thespaniardnyc.com/,Bar/Restaurant,,,,,
357,The Winey Neighbor,,"679 Washington Ave, Brooklyn, NY 11238, USA",New York,(347) 715 6693,Brooklyn,40.67685,-73.96342,https://wineyneighbor.com/,Retail Store,,,,,
358,Thirst Merchants,,"11 Greene Ave, Brooklyn, NY 11238",New York,(347) 762 5628,Brooklyn,40.68609,-73.97291,https://thirstmerchants.com/,Retail Store,,,,,
359,Tivoli Wine & Spirits,,"65 Broadway, Tivoli, NY 12583",New York,(845) 757 5400,Upstate,42.057273,-73.907936,,Retail Store,,,,,
360,Underground Bottle Shop,,"29 E Genesee St, Auburn, NY 13021, USA",New York,(315) 252 5696,Upstate,42.9335,-76.5614,http://www.undergroundbottleshop.com/,Retail Store,,,,,
361,Upstream Wine & Spirits,,"34 Main St, Livingston Manor, NY 12758",New York,(845) 439 1328,Upstate,41.90228,-74.8267,https://www.upstreamwine.com/,Retail Store,,,,,
362,Uptown Wine Shop,,"1361 Lexington Ave, New York, NY 10128",New York,(212) 289 6900,Manhattan,40.78216,-73.95341,https://uptownwineshop.com/,Retail Store,,,,,
363,Ursula,,"387A Nostrand Ave., Brooklyn, NY 11216",New York,,Brooklyn,40.68447,-73.95025,https://www.ursulabk.com/,Bar/Restaurant,,,,,
364,Valerie Bar,,"45 W 45th St, New York, NY 10036, USA",New York,(212) 302-4545,Manhattan,40.75611,-73.98136,https://www.valerienewyorkcity.com/,Bar/Restaurant,,,,,
365,Vanderbilt Ave Wine Merchants,,"573 Vanderbilt Ave, Brooklyn, NY 11238, USA",New York,(718) 398 1800,Brooklyn,40.68058,-73.96756,https://vwm.wine/,Retail Store,,,,,
366,Vines on Pine,,"814 W 187th St, New York, NY 10033",New York,(212) 923 0584,Manhattan,40.85525,-73.93763,https://www.vinesonpinenyc.com/,Retail Store,,,,,
367,Waterfront Wines,,"360 Furman St, Brooklyn, NY 11201",New York,(718) 246 5101,Brooklyn,40.693192,-73.99968,https://waterfrontwinesnyc.com/shop,Retail Store,,,,,
368,Wine & Liquor Shop of Malta,,"5 Kendall Way #4399, Ballston Spa, NY 12020",New York,(518) 899 4165,Upstate,42.973518,-73.793694,,Retail Store,,,,,
369,Wino(t),,"796 Franklin Ave, Brooklyn, NY 11238, USA",New York,(718) 576 6944,Brooklyn,40.671145,-73.957949,https://www.brooklynwinot.com/,Retail Store,,,,,